[{"OBJECT_NAME":"UNKNOWN","OBJECT_ID":"","EPOCH":"2026-04-05T13:14:32.991072","MEAN_MOTION":13.03103518,"ECCENTRICITY":0.00333445,"INCLINATION":90.2903,"RA_OF_ASC_NODE":32.7562,"ARG_OF_PERICENTER":355.0257,"MEAN_ANOMALY":5.0531,"EPHEMERIS_TYPE":0,"CLASSIFICATION_TYPE":"U","NORAD_CAT_ID":270103,"ELEMENT_SET_NO":999,"REV_AT_EPOCH":30221,"BSTAR":-0.0010829856,"MEAN_MOTION_DOT":-3.34e-6,"MEAN_MOTION_DDOT":0},{"OBJECT_NAME":"UNKNOWN","OBJECT_ID":"","EPOCH":"2026-04-01T12:05:26.579904","MEAN_MOTION":12.96160163,"ECCENTRICITY":0.00261902,"INCLINATION":90.2635,"RA_OF_ASC_NODE":14.2363,"ARG_OF_PERICENTER":302.6135,"MEAN_ANOMALY":57.2457,"EPHEMERIS_TYPE":0,"CLASSIFICATION_TYPE":"U","NORAD_CAT_ID":270104,"ELEMENT_SET_NO":999,"REV_AT_EPOCH":30020,"BSTAR":-0.00012659288,"MEAN_MOTION_DOT":-2.9e-7,"MEAN_MOTION_DDOT":0},{"OBJECT_NAME":"UNKNOWN","OBJECT_ID":"","EPOCH":"2026-04-05T04:42:37.774656","MEAN_MOTION":12.40410638,"ECCENTRICITY":0.01719123,"INCLINATION":56.0575,"RA_OF_ASC_NODE":262.6915,"ARG_OF_PERICENTER":249.058,"MEAN_ANOMALY":109.1848,"EPHEMERIS_TYPE":0,"CLASSIFICATION_TYPE":"U","NORAD_CAT_ID":270106,"ELEMENT_SET_NO":999,"REV_AT_EPOCH":28796,"BSTAR":0.00049963347,"MEAN_MOTION_DOT":-2.1e-7,"MEAN_MOTION_DDOT":0},{"OBJECT_NAME":"UNKNOWN","OBJECT_ID":"","EPOCH":"2026-04-04T08:26:43.910304","MEAN_MOTION":13.0600415,"ECCENTRICITY":0.00159231,"INCLINATION":90.0203,"RA_OF_ASC_NODE":311.2345,"ARG_OF_PERICENTER":276.7629,"MEAN_ANOMALY":83.1685,"EPHEMERIS_TYPE":0,"CLASSIFICATION_TYPE":"U","NORAD_CAT_ID":270108,"ELEMENT_SET_NO":999,"REV_AT_EPOCH":30268,"BSTAR":0.0039246461,"MEAN_MOTION_DOT":1.295e-5,"MEAN_MOTION_DDOT":0},{"OBJECT_NAME":"UNKNOWN","OBJECT_ID":"","EPOCH":"2026-04-05T11:45:03.128256","MEAN_MOTION":12.98426148,"ECCENTRICITY":0.00285894,"INCLINATION":90.253,"RA_OF_ASC_NODE":11.3627,"ARG_OF_PERICENTER":208.4008,"MEAN_ANOMALY":151.5556,"EPHEMERIS_TYPE":0,"CLASSIFICATION_TYPE":"U","NORAD_CAT_ID":270110,"ELEMENT_SET_NO":999,"REV_AT_EPOCH":30105,"BSTAR":-0.00050912133,"MEAN_MOTION_DOT":-1.43e-6,"MEAN_MOTION_DDOT":0},{"OBJECT_NAME":"UNKNOWN","OBJECT_ID":"","EPOCH":"2026-04-02T07:30:49.254912","MEAN_MOTION":14.38988729,"ECCENTRICITY":0.00213889,"INCLINATION":98.4847,"RA_OF_ASC_NODE":111.4785,"ARG_OF_PERICENTER":144.4505,"MEAN_ANOMALY":215.8112,"EPHEMERIS_TYPE":0,"CLASSIFICATION_TYPE":"U","NORAD_CAT_ID":270111,"ELEMENT_SET_NO":999,"REV_AT_EPOCH":33314,"BSTAR":0.00019553718,"MEAN_MOTION_DOT":5.61e-6,"MEAN_MOTION_DDOT":0},{"OBJECT_NAME":"UNKNOWN","OBJECT_ID":"","EPOCH":"2026-04-01T04:37:32.990880","MEAN_MOTION":12.95322833,"ECCENTRICITY":0.00302313,"INCLINATION":90.2436,"RA_OF_ASC_NODE":3.0607,"ARG_OF_PERICENTER":81.7014,"MEAN_ANOMALY":278.7532,"EPHEMERIS_TYPE":0,"CLASSIFICATION_TYPE":"U","NORAD_CAT_ID":270113,"ELEMENT_SET_NO":999,"REV_AT_EPOCH":29949,"BSTAR":0.0017865218,"MEAN_MOTION_DOT":5.12e-6,"MEAN_MOTION_DDOT":0},{"OBJECT_NAME":"UNKNOWN","OBJECT_ID":"","EPOCH":"2026-04-03T12:14:54.502656","MEAN_MOTION":12.95814656,"ECCENTRICITY":0.00506792,"INCLINATION":90.2475,"RA_OF_ASC_NODE":7.1343,"ARG_OF_PERICENTER":326.132,"MEAN_ANOMALY":33.6567,"EPHEMERIS_TYPE":0,"CLASSIFICATION_TYPE":"U","NORAD_CAT_ID":270114,"ELEMENT_SET_NO":999,"REV_AT_EPOCH":30038,"BSTAR":0.001708277,"MEAN_MOTION_DOT":4.94e-6,"MEAN_MOTION_DDOT":0},{"OBJECT_NAME":"UNKNOWN","OBJECT_ID":"","EPOCH":"2026-04-04T11:51:48.706272","MEAN_MOTION":12.97097201,"ECCENTRICITY":0.00311587,"INCLINATION":90.2502,"RA_OF_ASC_NODE":9.1065,"ARG_OF_PERICENTER":288.5865,"MEAN_ANOMALY":71.1872,"EPHEMERIS_TYPE":0,"CLASSIFICATION_TYPE":"U","NORAD_CAT_ID":270115,"ELEMENT_SET_NO":999,"REV_AT_EPOCH":29984,"BSTAR":0.00025733096,"MEAN_MOTION_DOT":8.2e-7,"MEAN_MOTION_DDOT":0},{"OBJECT_NAME":"UNKNOWN","OBJECT_ID":"","EPOCH":"2026-04-03T13:26:15.398016","MEAN_MOTION":12.23524798,"ECCENTRICITY":0.01304971,"INCLINATION":74.0068,"RA_OF_ASC_NODE":201.6698,"ARG_OF_PERICENTER":50.7171,"MEAN_ANOMALY":310.5355,"EPHEMERIS_TYPE":0,"CLASSIFICATION_TYPE":"U","NORAD_CAT_ID":270116,"ELEMENT_SET_NO":999,"REV_AT_EPOCH":28379,"BSTAR":-0.00014807944,"MEAN_MOTION_DOT":-3.1e-7,"MEAN_MOTION_DDOT":0},{"OBJECT_NAME":"UNKNOWN","OBJECT_ID":"","EPOCH":"2026-04-02T17:17:31.057440","MEAN_MOTION":13.00312742,"ECCENTRICITY":0.00293111,"INCLINATION":90.2393,"RA_OF_ASC_NODE":359.4029,"ARG_OF_PERICENTER":63.6088,"MEAN_ANOMALY":296.8038,"EPHEMERIS_TYPE":0,"CLASSIFICATION_TYPE":"U","NORAD_CAT_ID":270117,"ELEMENT_SET_NO":999,"REV_AT_EPOCH":30095,"BSTAR":0.0036422788,"MEAN_MOTION_DOT":1.11e-5,"MEAN_MOTION_DDOT":0},{"OBJECT_NAME":"UNKNOWN","OBJECT_ID":"","EPOCH":"2026-04-05T05:11:47.599296","MEAN_MOTION":14.55589576,"ECCENTRICITY":0.00043891,"INCLINATION":98.698,"RA_OF_ASC_NODE":271.628,"ARG_OF_PERICENTER":340.1576,"MEAN_ANOMALY":19.9449,"EPHEMERIS_TYPE":0,"CLASSIFICATION_TYPE":"U","NORAD_CAT_ID":270121,"ELEMENT_SET_NO":999,"REV_AT_EPOCH":33626,"BSTAR":0.0005665668,"MEAN_MOTION_DOT":2.422e-5,"MEAN_MOTION_DDOT":0},{"OBJECT_NAME":"UNKNOWN","OBJECT_ID":"","EPOCH":"2026-03-31T11:32:16.387872","MEAN_MOTION":12.96284217,"ECCENTRICITY":0.00304754,"INCLINATION":90.2514,"RA_OF_ASC_NODE":10.1235,"ARG_OF_PERICENTER":20.2813,"MEAN_ANOMALY":339.951,"EPHEMERIS_TYPE":0,"CLASSIFICATION_TYPE":"U","NORAD_CAT_ID":270122,"ELEMENT_SET_NO":999,"REV_AT_EPOCH":29930,"BSTAR":-0.0001802222,"MEAN_MOTION_DOT":-4.4e-7,"MEAN_MOTION_DDOT":0},{"OBJECT_NAME":"UNKNOWN","OBJECT_ID":"","EPOCH":"2026-03-21T20:51:47.930400","MEAN_MOTION":12.2395572,"ECCENTRICITY":0.0819679,"INCLINATION":83.2561,"RA_OF_ASC_NODE":307.8105,"ARG_OF_PERICENTER":321.483,"MEAN_ANOMALY":33.0371,"EPHEMERIS_TYPE":0,"CLASSIFICATION_TYPE":"U","NORAD_CAT_ID":270123,"ELEMENT_SET_NO":999,"REV_AT_EPOCH":28165,"BSTAR":0.0025127533,"MEAN_MOTION_DOT":8.22e-6,"MEAN_MOTION_DDOT":0},{"OBJECT_NAME":"UNKNOWN","OBJECT_ID":"","EPOCH":"2026-03-28T12:21:18.770976","MEAN_MOTION":12.96888942,"ECCENTRICITY":0.00244312,"INCLINATION":90.2521,"RA_OF_ASC_NODE":11.4298,"ARG_OF_PERICENTER":247.2317,"MEAN_ANOMALY":112.6222,"EPHEMERIS_TYPE":0,"CLASSIFICATION_TYPE":"U","NORAD_CAT_ID":270124,"ELEMENT_SET_NO":999,"REV_AT_EPOCH":29982,"BSTAR":-0.00069356551,"MEAN_MOTION_DOT":-1.93e-6,"MEAN_MOTION_DDOT":0},{"OBJECT_NAME":"UNKNOWN","OBJECT_ID":"","EPOCH":"2026-04-05T05:47:20.518944","MEAN_MOTION":14.77588775,"ECCENTRICITY":0.00142541,"INCLINATION":86.3213,"RA_OF_ASC_NODE":284.416,"ARG_OF_PERICENTER":212.5221,"MEAN_ANOMALY":147.5122,"EPHEMERIS_TYPE":0,"CLASSIFICATION_TYPE":"U","NORAD_CAT_ID":270127,"ELEMENT_SET_NO":999,"REV_AT_EPOCH":33746,"BSTAR":0.0017144786,"MEAN_MOTION_DOT":0.00012302,"MEAN_MOTION_DDOT":0},{"OBJECT_NAME":"UNKNOWN","OBJECT_ID":"","EPOCH":"2026-03-27T06:09:21.187872","MEAN_MOTION":12.33816776,"ECCENTRICITY":0.00467861,"INCLINATION":102.4386,"RA_OF_ASC_NODE":92.8653,"ARG_OF_PERICENTER":51.9186,"MEAN_ANOMALY":308.6079,"EPHEMERIS_TYPE":0,"CLASSIFICATION_TYPE":"U","NORAD_CAT_ID":270128,"ELEMENT_SET_NO":999,"REV_AT_EPOCH":28512,"BSTAR":0.00052453495,"MEAN_MOTION_DOT":1.9e-7,"MEAN_MOTION_DDOT":0},{"OBJECT_NAME":"UNKNOWN","OBJECT_ID":"","EPOCH":"2026-04-04T10:59:23.819712","MEAN_MOTION":12.98818025,"ECCENTRICITY":0.00271639,"INCLINATION":90.2423,"RA_OF_ASC_NODE":6.911,"ARG_OF_PERICENTER":272.6578,"MEAN_ANOMALY":87.1434,"EPHEMERIS_TYPE":0,"CLASSIFICATION_TYPE":"U","NORAD_CAT_ID":270129,"ELEMENT_SET_NO":999,"REV_AT_EPOCH":30034,"BSTAR":0.0070664367,"MEAN_MOTION_DOT":2.101e-5,"MEAN_MOTION_DDOT":0},{"OBJECT_NAME":"UNKNOWN","OBJECT_ID":"","EPOCH":"2026-04-05T07:20:21.658272","MEAN_MOTION":4.5247128,"ECCENTRICITY":0.53979828,"INCLINATION":63.1494,"RA_OF_ASC_NODE":106.9902,"ARG_OF_PERICENTER":348.8147,"MEAN_ANOMALY":2.8331,"EPHEMERIS_TYPE":0,"CLASSIFICATION_TYPE":"U","NORAD_CAT_ID":270131,"ELEMENT_SET_NO":999,"REV_AT_EPOCH":10505,"BSTAR":0.00073790475,"MEAN_MOTION_DOT":8.8e-7,"MEAN_MOTION_DDOT":0},{"OBJECT_NAME":"UNKNOWN","OBJECT_ID":"","EPOCH":"2026-03-30T13:58:01.801056","MEAN_MOTION":12.79673662,"ECCENTRICITY":0.03963565,"INCLINATION":63.2023,"RA_OF_ASC_NODE":192.7759,"ARG_OF_PERICENTER":22.3412,"MEAN_ANOMALY":339.4321,"EPHEMERIS_TYPE":0,"CLASSIFICATION_TYPE":"U","NORAD_CAT_ID":270133,"ELEMENT_SET_NO":999,"REV_AT_EPOCH":29619,"BSTAR":0.00055906842,"MEAN_MOTION_DOT":1.0e-6,"MEAN_MOTION_DDOT":0},{"OBJECT_NAME":"UNKNOWN","OBJECT_ID":"","EPOCH":"2026-04-05T13:58:49.912896","MEAN_MOTION":12.29538086,"ECCENTRICITY":0.06730075,"INCLINATION":66.0649,"RA_OF_ASC_NODE":207.0278,"ARG_OF_PERICENTER":172.7306,"MEAN_ANOMALY":188.4068,"EPHEMERIS_TYPE":0,"CLASSIFICATION_TYPE":"U","NORAD_CAT_ID":270134,"ELEMENT_SET_NO":999,"REV_AT_EPOCH":28526,"BSTAR":0.0001517222,"MEAN_MOTION_DOT":-1.5e-7,"MEAN_MOTION_DDOT":0},{"OBJECT_NAME":"UNKNOWN","OBJECT_ID":"","EPOCH":"2026-04-03T02:27:05.888736","MEAN_MOTION":13.04797212,"ECCENTRICITY":0.02792099,"INCLINATION":63.5738,"RA_OF_ASC_NODE":35.3947,"ARG_OF_PERICENTER":332.4794,"MEAN_ANOMALY":26.166,"EPHEMERIS_TYPE":0,"CLASSIFICATION_TYPE":"U","NORAD_CAT_ID":270135,"ELEMENT_SET_NO":999,"REV_AT_EPOCH":30216,"BSTAR":0.0011914443,"MEAN_MOTION_DOT":3.83e-6,"MEAN_MOTION_DDOT":0},{"OBJECT_NAME":"UNKNOWN","OBJECT_ID":"","EPOCH":"2026-04-04T23:21:57.720672","MEAN_MOTION":13.0254697,"ECCENTRICITY":0.00253329,"INCLINATION":90.2509,"RA_OF_ASC_NODE":3.5736,"ARG_OF_PERICENTER":151.2695,"MEAN_ANOMALY":208.983,"EPHEMERIS_TYPE":0,"CLASSIFICATION_TYPE":"U","NORAD_CAT_ID":270136,"ELEMENT_SET_NO":999,"REV_AT_EPOCH":30150,"BSTAR":0.0055919486,"MEAN_MOTION_DOT":1.755e-5,"MEAN_MOTION_DDOT":0},{"OBJECT_NAME":"UNKNOWN","OBJECT_ID":"","EPOCH":"2026-04-05T01:27:03.138336","MEAN_MOTION":12.12975626,"ECCENTRICITY":0.03079238,"INCLINATION":100.9919,"RA_OF_ASC_NODE":204.9288,"ARG_OF_PERICENTER":64.6849,"MEAN_ANOMALY":298.5765,"EPHEMERIS_TYPE":0,"CLASSIFICATION_TYPE":"U","NORAD_CAT_ID":270137,"ELEMENT_SET_NO":999,"REV_AT_EPOCH":28141,"BSTAR":0.00086188628,"MEAN_MOTION_DOT":6.0e-7,"MEAN_MOTION_DDOT":0}]
